UNKNOWN                 
1 85023U          26031.02523620  .00028739  00000+0  39893-2 0  9992
2 85023  99.8443  62.1957 0003003 163.9833 226.6928 14.77853651636104
UNKNOWN                 
1 85027U          26030.12052228  .00000119  00000+0  18775-3 0  9996
2 85027  66.0437 343.0317 0172986 164.9460 195.6848 13.74268592611268
UNKNOWN                 
1 85047U          26030.88166054  .00012849  00000+0  20411-1 0  9995
2 85047 102.1726  11.6141 0139496 279.0623  79.4737 13.45781510583266
UNKNOWN                 
1 85061U          26029.53172418  .00004824  00000+0  19260-1 0  9996
2 85061 102.3962  22.6950 0261289  95.8284  27.9486 12.77370273561886
UNKNOWN                 
1 85100U          26028.58346051  .00000694  00000+0  22508-3 0  9992
2 85100  74.0464 136.1842 0012802 347.9262  27.6582 14.40760720640092
UNKNOWN                 
1 85106U          26031.06146169  .00000671  00000+0  77948-3 0  9996
2 85106 100.0524 139.3473 0009474 242.5655 294.0023 13.72976473609832
UNKNOWN                 
1 85151U          26030.59124835  .00027278  00000+0  34907-2 0  9998
2 85151  98.4052 261.8611 0011006 355.2787   4.8318 14.81256755486758
UNKNOWN                 
1 85210U          26031.19822851  .00000729  00000+0  72525-3 0  9995
2 85210  99.8575 178.5449 0218701 187.7953 348.2319 13.71639823608937
UNKNOWN                 
1 85217U          26031.21941683  .00002085  00000+0  55727-3 0  9992
2 85217  98.0267 127.3836 0206467 339.0651  20.2172 14.37456079634967
UNKNOWN                 
1 85237U          26023.60039772  .00005306  00000+0  11008-2 0  9997
2 85237  65.5329 105.0204 0514900   8.4704 352.4654 14.01306243614218
UNKNOWN                 
1 85238U          26030.57208095  .00000068  00000+0  91158-4 0  9994
2 85238  99.0660 323.3671 0064269  68.9259 104.3234 13.88353007617615
UNKNOWN                 
1 85246U          26031.45509562  .00001069  00000+0  39191-3 0  9994
2 85246  97.9882  35.2908 0223217 157.0559 204.0783 14.21671147630137
