CCSDS_OMM_VERS = 2.0
CREATION_DATE  = 
ORIGINATOR     = 

OBJECT_NAME    = UNKNOWN
OBJECT_ID      = 
CENTER_NAME    = EARTH
REF_FRAME      = TEME
TIME_SYSTEM    = UTC
MEAN_ELEMENT_THEORY = SGP/SGP4

EPOCH          = 2026-01-31T00:36:20.407680
MEAN_MOTION    = 14.77853651
ECCENTRICITY   = .0003003
INCLINATION    = 99.8443
RA_OF_ASC_NODE = 62.1957
ARG_OF_PERICENTER = 163.9833
MEAN_ANOMALY   = 226.6928

EPHEMERIS_TYPE = 0
CLASSIFICATION_TYPE = U
NORAD_CAT_ID   = 85023
ELEMENT_SET_NO = 999
REV_AT_EPOCH   = 63610
BSTAR          = .39893E-2
MEAN_MOTION_DOT = .28739E-3
MEAN_MOTION_DDOT = 0

CCSDS_OMM_VERS = 2.0
CREATION_DATE  = 
ORIGINATOR     = 

OBJECT_NAME    = UNKNOWN
OBJECT_ID      = 
CENTER_NAME    = EARTH
REF_FRAME      = TEME
TIME_SYSTEM    = UTC
MEAN_ELEMENT_THEORY = SGP/SGP4

EPOCH          = 2026-01-30T02:53:33.124992
MEAN_MOTION    = 13.74268592
ECCENTRICITY   = .0172986
INCLINATION    = 66.0437
RA_OF_ASC_NODE = 343.0317
ARG_OF_PERICENTER = 164.9460
MEAN_ANOMALY   = 195.6848

EPHEMERIS_TYPE = 0
CLASSIFICATION_TYPE = U
NORAD_CAT_ID   = 85027
ELEMENT_SET_NO = 999
REV_AT_EPOCH   = 61126
BSTAR          = .18775E-3
MEAN_MOTION_DOT = .119E-5
MEAN_MOTION_DDOT = 0

CCSDS_OMM_VERS = 2.0
CREATION_DATE  = 
ORIGINATOR     = 

OBJECT_NAME    = UNKNOWN
OBJECT_ID      = 
CENTER_NAME    = EARTH
REF_FRAME      = TEME
TIME_SYSTEM    = UTC
MEAN_ELEMENT_THEORY = SGP/SGP4

EPOCH          = 2026-01-30T21:09:35.470656
MEAN_MOTION    = 13.45781510
ECCENTRICITY   = .0139496
INCLINATION    = 102.1726
RA_OF_ASC_NODE = 11.6141
ARG_OF_PERICENTER = 279.0623
MEAN_ANOMALY   = 79.4737

EPHEMERIS_TYPE = 0
CLASSIFICATION_TYPE = U
NORAD_CAT_ID   = 85047
ELEMENT_SET_NO = 999
REV_AT_EPOCH   = 58326
BSTAR          = .20411E-1
MEAN_MOTION_DOT = .12849E-3
MEAN_MOTION_DDOT = 0

CCSDS_OMM_VERS = 2.0
CREATION_DATE  = 
ORIGINATOR     = 

OBJECT_NAME    = UNKNOWN
OBJECT_ID      = 
CENTER_NAME    = EARTH
REF_FRAME      = TEME
TIME_SYSTEM    = UTC
MEAN_ELEMENT_THEORY = SGP/SGP4

EPOCH          = 2026-01-29T12:45:40.969152
MEAN_MOTION    = 12.77370273
ECCENTRICITY   = .0261289
INCLINATION    = 102.3962
RA_OF_ASC_NODE = 22.6950
ARG_OF_PERICENTER = 95.8284
MEAN_ANOMALY   = 27.9486

EPHEMERIS_TYPE = 0
CLASSIFICATION_TYPE = U
NORAD_CAT_ID   = 85061
ELEMENT_SET_NO = 999
REV_AT_EPOCH   = 56188
BSTAR          = .1926E-1
MEAN_MOTION_DOT = .4824E-4
MEAN_MOTION_DDOT = 0

CCSDS_OMM_VERS = 2.0
CREATION_DATE  = 
ORIGINATOR     = 

OBJECT_NAME    = UNKNOWN
OBJECT_ID      = 
CENTER_NAME    = EARTH
REF_FRAME      = TEME
TIME_SYSTEM    = UTC
MEAN_ELEMENT_THEORY = SGP/SGP4

EPOCH          = 2026-01-28T14:00:10.988064
MEAN_MOTION    = 14.40760720
ECCENTRICITY   = .0012802
INCLINATION    = 74.0464
RA_OF_ASC_NODE = 136.1842
ARG_OF_PERICENTER = 347.9262
MEAN_ANOMALY   = 27.6582

EPHEMERIS_TYPE = 0
CLASSIFICATION_TYPE = U
NORAD_CAT_ID   = 85100
ELEMENT_SET_NO = 999
REV_AT_EPOCH   = 64009
BSTAR          = .22508E-3
MEAN_MOTION_DOT = .694E-5
MEAN_MOTION_DDOT = 0

CCSDS_OMM_VERS = 2.0
CREATION_DATE  = 
ORIGINATOR     = 

OBJECT_NAME    = UNKNOWN
OBJECT_ID      = 
CENTER_NAME    = EARTH
REF_FRAME      = TEME
TIME_SYSTEM    = UTC
MEAN_ELEMENT_THEORY = SGP/SGP4

EPOCH          = 2026-01-31T01:28:30.290016
MEAN_MOTION    = 13.72976473
ECCENTRICITY   = .0009474
INCLINATION    = 100.0524
RA_OF_ASC_NODE = 139.3473
ARG_OF_PERICENTER = 242.5655
MEAN_ANOMALY   = 294.0023

EPHEMERIS_TYPE = 0
CLASSIFICATION_TYPE = U
NORAD_CAT_ID   = 85106
ELEMENT_SET_NO = 999
REV_AT_EPOCH   = 60983
BSTAR          = .77948E-3
MEAN_MOTION_DOT = .671E-5
MEAN_MOTION_DDOT = 0

CCSDS_OMM_VERS = 2.0
CREATION_DATE  = 
ORIGINATOR     = 

OBJECT_NAME    = UNKNOWN
OBJECT_ID      = 
CENTER_NAME    = EARTH
REF_FRAME      = TEME
TIME_SYSTEM    = UTC
MEAN_ELEMENT_THEORY = SGP/SGP4

EPOCH          = 2026-01-30T14:11:23.857440
MEAN_MOTION    = 14.81256755
ECCENTRICITY   = .0011006
INCLINATION    = 98.4052
RA_OF_ASC_NODE = 261.8611
ARG_OF_PERICENTER = 355.2787
MEAN_ANOMALY   = 4.8318

EPHEMERIS_TYPE = 0
CLASSIFICATION_TYPE = U
NORAD_CAT_ID   = 85151
ELEMENT_SET_NO = 999
REV_AT_EPOCH   = 48675
BSTAR          = .34907E-2
MEAN_MOTION_DOT = .27278E-3
MEAN_MOTION_DDOT = 0

CCSDS_OMM_VERS = 2.0
CREATION_DATE  = 
ORIGINATOR     = 

OBJECT_NAME    = UNKNOWN
OBJECT_ID      = 
CENTER_NAME    = EARTH
REF_FRAME      = TEME
TIME_SYSTEM    = UTC
MEAN_ELEMENT_THEORY = SGP/SGP4

EPOCH          = 2026-01-31T04:45:26.943264
MEAN_MOTION    = 13.71639823
ECCENTRICITY   = .0218701
INCLINATION    = 99.8575
RA_OF_ASC_NODE = 178.5449
ARG_OF_PERICENTER = 187.7953
MEAN_ANOMALY   = 348.2319

EPHEMERIS_TYPE = 0
CLASSIFICATION_TYPE = U
NORAD_CAT_ID   = 85210
ELEMENT_SET_NO = 999
REV_AT_EPOCH   = 60893
BSTAR          = .72525E-3
MEAN_MOTION_DOT = .729E-5
MEAN_MOTION_DDOT = 0

CCSDS_OMM_VERS = 2.0
CREATION_DATE  = 
ORIGINATOR     = 

OBJECT_NAME    = UNKNOWN
OBJECT_ID      = 
CENTER_NAME    = EARTH
REF_FRAME      = TEME
TIME_SYSTEM    = UTC
MEAN_ELEMENT_THEORY = SGP/SGP4

EPOCH          = 2026-01-31T05:15:57.614112
MEAN_MOTION    = 14.37456079
ECCENTRICITY   = .0206467
INCLINATION    = 98.0267
RA_OF_ASC_NODE = 127.3836
ARG_OF_PERICENTER = 339.0651
MEAN_ANOMALY   = 20.2172

EPHEMERIS_TYPE = 0
CLASSIFICATION_TYPE = U
NORAD_CAT_ID   = 85217
ELEMENT_SET_NO = 999
REV_AT_EPOCH   = 63496
BSTAR          = .55727E-3
MEAN_MOTION_DOT = .2085E-4
MEAN_MOTION_DDOT = 0

CCSDS_OMM_VERS = 2.0
CREATION_DATE  = 
ORIGINATOR     = 

OBJECT_NAME    = UNKNOWN
OBJECT_ID      = 
CENTER_NAME    = EARTH
REF_FRAME      = TEME
TIME_SYSTEM    = UTC
MEAN_ELEMENT_THEORY = SGP/SGP4

EPOCH          = 2026-01-23T14:24:34.363008
MEAN_MOTION    = 14.01306243
ECCENTRICITY   = .05149
INCLINATION    = 65.5329
RA_OF_ASC_NODE = 105.0204
ARG_OF_PERICENTER = 8.4704
MEAN_ANOMALY   = 352.4654

EPHEMERIS_TYPE = 0
CLASSIFICATION_TYPE = U
NORAD_CAT_ID   = 85237
ELEMENT_SET_NO = 999
REV_AT_EPOCH   = 61421
BSTAR          = .11008E-2
MEAN_MOTION_DOT = .5306E-4
MEAN_MOTION_DDOT = 0

CCSDS_OMM_VERS = 2.0
CREATION_DATE  = 
ORIGINATOR     = 

OBJECT_NAME    = UNKNOWN
OBJECT_ID      = 
CENTER_NAME    = EARTH
REF_FRAME      = TEME
TIME_SYSTEM    = UTC
MEAN_ELEMENT_THEORY = SGP/SGP4

EPOCH          = 2026-01-30T13:43:47.794080
MEAN_MOTION    = 13.88353007
ECCENTRICITY   = .0064269
INCLINATION    = 99.0660
RA_OF_ASC_NODE = 323.3671
ARG_OF_PERICENTER = 68.9259
MEAN_ANOMALY   = 104.3234

EPHEMERIS_TYPE = 0
CLASSIFICATION_TYPE = U
NORAD_CAT_ID   = 85238
ELEMENT_SET_NO = 999
REV_AT_EPOCH   = 61761
BSTAR          = .91158E-4
MEAN_MOTION_DOT = .68E-6
MEAN_MOTION_DDOT = 0

CCSDS_OMM_VERS = 2.0
CREATION_DATE  = 
ORIGINATOR     = 

OBJECT_NAME    = UNKNOWN
OBJECT_ID      = 
CENTER_NAME    = EARTH
REF_FRAME      = TEME
TIME_SYSTEM    = UTC
MEAN_ELEMENT_THEORY = SGP/SGP4

EPOCH          = 2026-01-31T10:55:20.261568
MEAN_MOTION    = 14.21671147
ECCENTRICITY   = .0223217
INCLINATION    = 97.9882
RA_OF_ASC_NODE = 35.2908
ARG_OF_PERICENTER = 157.0559
MEAN_ANOMALY   = 204.0783

EPHEMERIS_TYPE = 0
CLASSIFICATION_TYPE = U
NORAD_CAT_ID   = 85246
ELEMENT_SET_NO = 999
REV_AT_EPOCH   = 63013
BSTAR          = .39191E-3
MEAN_MOTION_DOT = .1069E-4
MEAN_MOTION_DDOT = 0

